IRIDIUM 921 [-]         
1 24873U 97034E   24058.80487741  .00023960  00000+0  76261-3 0  9999
2 24873  86.3890 342.4457 0003147  14.5398 345.5942 15.32454684458241
IRIDIUM 26 [-]          
1 24903U 97043A   24058.97606284  .00000535  00000+0  17654-3 0  9990
2 24903  86.3966 310.0318 0001935  89.2399 270.9020 14.36223880388514
IRIDIUM 22 [-]          
1 24907U 97043E   24058.94670325  .00000502  00000+0  16893-3 0  9996
2 24907  86.3976 313.1936 0002128  84.1137 276.0302 14.35120102388598
DUMMY MASS 1 [-]        
1 24925U 97048A   24058.90273095  .00000733  00000+0  80512-4 0  9996
2 24925  86.3399 354.9353 0008407  45.2433 314.9474 14.86069863434525
DUMMY MASS 2 [-]        
1 24926U 97048B   24058.85412437  .00000736  00000+0  81363-4 0  9994
2 24926  86.3399 356.4801 0009512  53.0091 307.2002 14.85829108434309
IRIDIUM 29 [-]          
1 24944U 97051A   24058.84499356  .00000590  00000+0  19810-3 0  9997
2 24944  86.4012 343.1631 0002268  79.3722 280.7730 14.35575918385275
IRIDIUM 33 [-]          
1 24946U 97051C   24058.83957395  .00000423  00000+0  14361-3 0  9991
2 24946  86.3927 342.4260 0007700 173.8901 186.2390 14.34272418384590
IRIDIUM 28 [-]          
1 24948U 97051E   24058.85217949  .00000608  00000+0  20044-3 0  9999
2 24948  86.4015 340.9500 0002004  96.2138 263.9288 14.36524583385587
